{"type": "FeatureCollection", "data_mode": "mock", "features": [{"type": "Feature", "geometry": {"type": "Polygon", "coordinates": [[[75.43832, 28.93756], [75.38014, 28.93756], [75.38014, 29.01399], [75.38014, 29.06617], [75.38014, 29.07397], [75.38014, 29.13316], [75.44246, 29.1119], [75.44553, 29.10499], [75.44597, 29.10463], [75.45525, 29.10563], [75.49611, 29.09445], [75.49628, 29.0942], [75.52684, 29.08338], [75.52716, 29.06745], [75.53335, 29.05265], [75.53244, 29.02675], [75.53798, 29.01935], [75.53904, 29.00304], [75.53429, 28.99618], [75.5289, 28.93756], [75.50155, 28.93756], [75.43832, 28.93756]]]}, "properties": {"block_id": "MB01", "name": "Synthetic Block 1"}}, {"type": "Feature", "geometry": {"type": "Polygon", "coordinates": [[[75.56548, 28.93756], [75.5289, 28.93756], [75.53429, 28.99618], [75.53904, 29.00304], [75.53798, 29.01935], [75.53244, 29.02675], [75.53335, 29.05265], [75.52716, 29.06745], [75.52684, 29.08338], [75.528, 29.08445], [75.5384, 29.1256], [75.54116, 29.12717], [75.57606, 29.1215], [75.58132, 29.09977], [75.61817, 29.08524], [75.61949, 29.08388], [75.66812, 29.0983], [75.66846, 29.09779], [75.70388, 29.08081], [75.70889, 29.05763], [75.67828, 29.04218], [75.68108, 29.02462], [75.71566, 29.01437], [75.70812, 28.98965], [75.70611, 28.98734], [75.70694, 28.93756], [75.66427, 28.93756], [75.63594, 28.93756], [75.56548, 28.93756]]]}, "properties": {"block_id": "MB02", "name": "Synthetic Block 2"}}, {"type": "Feature", "geometry": {"type": "Polygon", "coordinates": [[[75.73736, 28.93756], [75.70694, 28.93756], [75.70611, 28.98734], [75.70812, 28.98965], [75.71566, 29.01437], [75.68108, 29.02462], [75.67828, 29.04218], [75.70889, 29.05763], [75.70388, 29.08081], [75.66846, 29.09779], [75.66812, 29.0983], [75.66949, 29.1083], [75.71325, 29.13182], [75.72357, 29.12365], [75.75535, 29.12274], [75.76339, 29.11155], [75.76622, 29.09561], [75.79068, 29.08427], [75.80884, 29.11561], [75.86536, 29.11878], [75.87205, 29.12089], [75.87205, 29.06081], [75.87205, 29.03251], [75.87205, 28.98747], [75.87205, 28.93756], [75.80899, 28.93756], [75.73736, 28.93756]]]}, "properties": {"block_id": "MB03", "name": "Synthetic Block 3"}}, {"type": "Feature", "geometry": {"type": "Polygon", "coordinates": [[[75.38014, 29.16423], [75.38014, 29.23264], [75.38014, 29.27519], [75.4452, 29.27519], [75.47962, 29.27519], [75.54469, 29.27519], [75.53635, 29.24025], [75.5717, 29.21026], [75.53034, 29.17965], [75.53044, 29.17851], [75.54455, 29.16504], [75.54116, 29.12717], [75.5384, 29.1256], [75.528, 29.08445], [75.52684, 29.08338], [75.49628, 29.0942], [75.49611, 29.09445], [75.45525, 29.10563], [75.44597, 29.10463], [75.44553, 29.10499], [75.44246, 29.1119], [75.38014, 29.13316], [75.38014, 29.16423]]]}, "properties": {"block_id": "MB04", "name": "Synthetic Block 4"}}, {"type": "Feature", "geometry": {"type": "Polygon", "coordinates": [[[75.57606, 29.1215], [75.54116, 29.12717], [75.54455, 29.16504], [75.53044, 29.17851], [75.53034, 29.17965], [75.5717, 29.21026], [75.53635, 29.24025], [75.54469, 29.27519], [75.58801, 29.27519], [75.61101, 29.27519], [75.6537, 29.27519], [75.72433, 29.27519], [75.72045, 29.23723], [75.72004, 29.23658], [75.67308, 29.22375], [75.67317, 29.20598], [75.71462, 29.18084], [75.71262, 29.16269], [75.7117, 29.16129], [75.71325, 29.13182], [75.66949, 29.1083], [75.66812, 29.0983], [75.61949, 29.08388], [75.61817, 29.08524], [75.58132, 29.09977], [75.57606, 29.1215]]]}, "properties": {"block_id": "MB05", "name": "Synthetic Block 5"}}, {"type": "Feature", "geometry": {"type": "Polygon", "coordinates": [[[75.75535, 29.12274], [75.72357, 29.12365], [75.71325, 29.13182], [75.7117, 29.16129], [75.71262, 29.16269], [75.71462, 29.18084], [75.67317, 29.20598], [75.67308, 29.22375], [75.72004, 29.23658], [75.72045, 29.23723], [75.72433, 29.27519], [75.77961, 29.27519], [75.80854, 29.27519], [75.87205, 29.27519], [75.87205, 29.24117], [75.87205, 29.19328], [75.87205, 29.12825], [75.87205, 29.12089], [75.86536, 29.11878], [75.80884, 29.11561], [75.79068, 29.08427], [75.76622, 29.09561], [75.76339, 29.11155], [75.75535, 29.12274]]]}, "properties": {"block_id": "MB06", "name": "Synthetic Block 6"}}]}
