{"type": "FeatureCollection", "data_mode": "mock", "features": [{"type": "Feature", "geometry": {"type": "Polygon", "coordinates": [[[75.39724, 29.01164], [75.44244, 28.96877], [75.43832, 28.93756], [75.38014, 28.93756], [75.38014, 29.01399], [75.39724, 29.01164]]]}, "properties": {"panchayat_id": "MP0101", "name": "Synthetic Panchayat MP0101", "block_id": "MB01"}}, {"type": "Feature", "geometry": {"type": "Polygon", "coordinates": [[[75.44244, 28.96877], [75.46048, 28.98951], [75.48503, 28.98945], [75.48777, 28.9873], [75.50155, 28.93756], [75.43832, 28.93756], [75.44244, 28.96877]]]}, "properties": {"panchayat_id": "MP0102", "name": "Synthetic Panchayat MP0102", "block_id": "MB01"}}, {"type": "Feature", "geometry": {"type": "Polygon", "coordinates": [[[75.53429, 28.99618], [75.5289, 28.93756], [75.50155, 28.93756], [75.48777, 28.9873], [75.53429, 28.99618]]]}, "properties": {"panchayat_id": "MP0103", "name": "Synthetic Panchayat MP0103", "block_id": "MB01"}}, {"type": "Feature", "geometry": {"type": "Polygon", "coordinates": [[[75.53429, 28.99618], [75.53904, 29.00304], [75.58112, 28.98256], [75.56548, 28.93756], [75.5289, 28.93756], [75.53429, 28.99618]]]}, "properties": {"panchayat_id": "MP0201", "name": "Synthetic Panchayat MP0201", "block_id": "MB02"}}, {"type": "Feature", "geometry": {"type": "Polygon", "coordinates": [[[75.58112, 28.98256], [75.58687, 28.98517], [75.62211, 28.973], [75.63594, 28.93756], [75.56548, 28.93756], [75.58112, 28.98256]]]}, "properties": {"panchayat_id": "MP0202", "name": "Synthetic Panchayat MP0202", "block_id": "MB02"}}, {"type": "Feature", "geometry": {"type": "Polygon", "coordinates": [[[75.63188, 28.99094], [75.67103, 28.98453], [75.66427, 28.93756], [75.63594, 28.93756], [75.62211, 28.973], [75.63188, 28.99094]]]}, "properties": {"panchayat_id": "MP0203", "name": "Synthetic Panchayat MP0203", "block_id": "MB02"}}, {"type": "Feature", "geometry": {"type": "Polygon", "coordinates": [[[75.67103, 28.98453], [75.67472, 28.99023], [75.70611, 28.98734], [75.70694, 28.93756], [75.66427, 28.93756], [75.67103, 28.98453]]]}, "properties": {"panchayat_id": "MP0204", "name": "Synthetic Panchayat MP0204", "block_id": "MB02"}}, {"type": "Feature", "geometry": {"type": "Polygon", "coordinates": [[[75.70812, 28.98965], [75.75062, 28.97537], [75.73736, 28.93756], [75.70694, 28.93756], [75.70611, 28.98734], [75.70812, 28.98965]]]}, "properties": {"panchayat_id": "MP0301", "name": "Synthetic Panchayat MP0301", "block_id": "MB03"}}, {"type": "Feature", "geometry": {"type": "Polygon", "coordinates": [[[75.75062, 28.97537], [75.75806, 28.9843], [75.8034, 28.98489], [75.80384, 28.98424], [75.80899, 28.93756], [75.73736, 28.93756], [75.75062, 28.97537]]]}, "properties": {"panchayat_id": "MP0302", "name": "Synthetic Panchayat MP0302", "block_id": "MB03"}}, {"type": "Feature", "geometry": {"type": "Polygon", "coordinates": [[[75.80384, 28.98424], [75.87205, 28.98747], [75.87205, 28.93756], [75.80899, 28.93756], [75.80384, 28.98424]]]}, "properties": {"panchayat_id": "MP0303", "name": "Synthetic Panchayat MP0303", "block_id": "MB03"}}, {"type": "Feature", "geometry": {"type": "Polygon", "coordinates": [[[75.43563, 29.02395], [75.45211, 29.01311], [75.46048, 28.98951], [75.44244, 28.96877], [75.39724, 29.01164], [75.43563, 29.02395]]]}, "properties": {"panchayat_id": "MP0104", "name": "Synthetic Panchayat MP0104", "block_id": "MB01"}}, {"type": "Feature", "geometry": {"type": "Polygon", "coordinates": [[[75.48374, 29.03673], [75.49353, 29.02789], [75.48503, 28.98945], [75.46048, 28.98951], [75.45211, 29.01311], [75.48374, 29.03673]]]}, "properties": {"panchayat_id": "MP0105", "name": "Synthetic Panchayat MP0105", "block_id": "MB01"}}, {"type": "Feature", "geometry": {"type": "Polygon", "coordinates": [[[75.49353, 29.02789], [75.53244, 29.02675], [75.53798, 29.01935], [75.53904, 29.00304], [75.53429, 28.99618], [75.48777, 28.9873], [75.48503, 28.98945], [75.49353, 29.02789]]]}, "properties": {"panchayat_id": "MP0106", "name": "Synthetic Panchayat MP0106", "block_id": "MB01"}}, {"type": "Feature", "geometry": {"type": "Polygon", "coordinates": [[[75.53798, 29.01935], [75.57494, 29.03171], [75.59512, 29.01979], [75.58687, 28.98517], [75.58112, 28.98256], [75.53904, 29.00304], [75.53798, 29.01935]]]}, "properties": {"panchayat_id": "MP0205", "name": "Synthetic Panchayat MP0205", "block_id": "MB02"}}, {"type": "Feature", "geometry": {"type": "Polygon", "coordinates": [[[75.59512, 29.01979], [75.62457, 29.03271], [75.63493, 29.0157], [75.63188, 28.99094], [75.62211, 28.973], [75.58687, 28.98517], [75.59512, 29.01979]]]}, "properties": {"panchayat_id": "MP0206", "name": "Synthetic Panchayat MP0206", "block_id": "MB02"}}, {"type": "Feature", "geometry": {"type": "Polygon", "coordinates": [[[75.63493, 29.0157], [75.67013, 29.01117], [75.67472, 28.99023], [75.67103, 28.98453], [75.63188, 28.99094], [75.63493, 29.0157]]]}, "properties": {"panchayat_id": "MP0207", "name": "Synthetic Panchayat MP0207", "block_id": "MB02"}}, {"type": "Feature", "geometry": {"type": "Polygon", "coordinates": [[[75.67013, 29.01117], [75.68108, 29.02462], [75.71566, 29.01437], [75.70812, 28.98965], [75.70611, 28.98734], [75.67472, 28.99023], [75.67013, 29.01117]]]}, "properties": {"panchayat_id": "MP0208", "name": "Synthetic Panchayat MP0208", "block_id": "MB02"}}, {"type": "Feature", "geometry": {"type": "Polygon", "coordinates": [[[75.71566, 29.01437], [75.71899, 29.01657], [75.74846, 29.00454], [75.75806, 28.9843], [75.75062, 28.97537], [75.70812, 28.98965], [75.71566, 29.01437]]]}, "properties": {"panchayat_id": "MP0304", "name": "Synthetic Panchayat MP0304", "block_id": "MB03"}}, {"type": "Feature", "geometry": {"type": "Polygon", "coordinates": [[[75.74846, 29.00454], [75.76244, 29.027], [75.80463, 29.00289], [75.8034, 28.98489], [75.75806, 28.9843], [75.74846, 29.00454]]]}, "properties": {"panchayat_id": "MP0305", "name": "Synthetic Panchayat MP0305", "block_id": "MB03"}}, {"type": "Feature", "geometry": {"type": "Polygon", "coordinates": [[[75.80384, 28.98424], [75.8034, 28.98489], [75.80463, 29.00289], [75.81043, 29.01778], [75.87205, 29.03251], [75.87205, 28.98747], [75.80384, 28.98424]]]}, "properties": {"panchayat_id": "MP0306", "name": "Synthetic Panchayat MP0306", "block_id": "MB03"}}, {"type": "Feature", "geometry": {"type": "Polygon", "coordinates": [[[75.44489, 29.05862], [75.43563, 29.02395], [75.39724, 29.01164], [75.38014, 29.01399], [75.38014, 29.06617], [75.44489, 29.05862]]]}, "properties": {"panchayat_id": "MP0107", "name": "Synthetic Panchayat MP0107", "block_id": "MB01"}}, {"type": "Feature", "geometry": {"type": "Polygon", "coordinates": [[[75.44489, 29.05862], [75.4508, 29.063], [75.4744, 29.05635], [75.47955, 29.05015], [75.48374, 29.03673], [75.45211, 29.01311], [75.43563, 29.02395], [75.44489, 29.05862]]]}, "properties": {"panchayat_id": "MP0108", "name": "Synthetic Panchayat MP0108", "block_id": "MB01"}}, {"type": "Feature", "geometry": {"type": "Polygon", "coordinates": [[[75.47955, 29.05015], [75.52716, 29.06745], [75.53335, 29.05265], [75.53244, 29.02675], [75.49353, 29.02789], [75.48374, 29.03673], [75.47955, 29.05015]]]}, "properties": {"panchayat_id": "MP0109", "name": "Synthetic Panchayat MP0109", "block_id": "MB01"}}, {"type": "Feature", "geometry": {"type": "Polygon", "coordinates": [[[75.53335, 29.05265], [75.57211, 29.06163], [75.57705, 29.056], [75.57494, 29.03171], [75.53798, 29.01935], [75.53244, 29.02675], [75.53335, 29.05265]]]}, "properties": {"panchayat_id": "MP0209", "name": "Synthetic Panchayat MP0209", "block_id": "MB02"}}, {"type": "Feature", "geometry": {"type": "Polygon", "coordinates": [[[75.57705, 29.056], [75.61698, 29.06219], [75.62582, 29.03855], [75.62457, 29.03271], [75.59512, 29.01979], [75.57494, 29.03171], [75.57705, 29.056]]]}, "properties": {"panchayat_id": "MP0210", "name": "Synthetic Panchayat MP0210", "block_id": "MB02"}}, {"type": "Feature", "geometry": {"type": "Polygon", "coordinates": [[[75.62582, 29.03855], [75.66678, 29.05196], [75.67828, 29.04218], [75.68108, 29.02462], [75.67013, 29.01117], [75.63493, 29.0157], [75.62457, 29.03271], [75.62582, 29.03855]]]}, "properties": {"panchayat_id": "MP0211", "name": "Synthetic Panchayat MP0211", "block_id": "MB02"}}, {"type": "Feature", "geometry": {"type": "Polygon", "coordinates": [[[75.70889, 29.05763], [75.7258, 29.04532], [75.71899, 29.01657], [75.71566, 29.01437], [75.68108, 29.02462], [75.67828, 29.04218], [75.70889, 29.05763]]]}, "properties": {"panchayat_id": "MP0307", "name": "Synthetic Panchayat MP0307", "block_id": "MB03"}}, {"type": "Feature", "geometry": {"type": "Polygon", "coordinates": [[[75.74599, 29.05334], [75.7612, 29.04348], [75.76244, 29.027], [75.74846, 29.00454], [75.71899, 29.01657], [75.7258, 29.04532], [75.74599, 29.05334]]]}, "properties": {"panchayat_id": "MP0308", "name": "Synthetic Panchayat MP0308", "block_id": "MB03"}}, {"type": "Feature", "geometry": {"type": "Polygon", "coordinates": [[[75.80107, 29.05471], [75.81043, 29.01778], [75.80463, 29.00289], [75.76244, 29.027], [75.7612, 29.04348], [75.80107, 29.05471]]]}, "properties": {"panchayat_id": "MP0309", "name": "Synthetic Panchayat MP0309", "block_id": "MB03"}}, {"type": "Feature", "geometry": {"type": "Polygon", "coordinates": [[[75.80246, 29.0583], [75.87205, 29.06081], [75.87205, 29.03251], [75.81043, 29.01778], [75.80107, 29.05471], [75.80246, 29.0583]]]}, "properties": {"panchayat_id": "MP0310", "name": "Synthetic Panchayat MP0310", "block_id": "MB03"}}, {"type": "Feature", "geometry": {"type": "Polygon", "coordinates": [[[75.44597, 29.10463], [75.4508, 29.063], [75.44489, 29.05862], [75.38014, 29.06617], [75.38014, 29.07397], [75.44553, 29.10499], [75.44597, 29.10463]]]}, "properties": {"panchayat_id": "MP0110", "name": "Synthetic Panchayat MP0110", "block_id": "MB01"}}, {"type": "Feature", "geometry": {"type": "Polygon", "coordinates": [[[75.44597, 29.10463], [75.45525, 29.10563], [75.49611, 29.09445], [75.49628, 29.0942], [75.4744, 29.05635], [75.4508, 29.063], [75.44597, 29.10463]]]}, "properties": {"panchayat_id": "MP0111", "name": "Synthetic Panchayat MP0111", "block_id": "MB01"}}, {"type": "Feature", "geometry": {"type": "Polygon", "coordinates": [[[75.49628, 29.0942], [75.52684, 29.08338], [75.52716, 29.06745], [75.47955, 29.05015], [75.4744, 29.05635], [75.49628, 29.0942]]]}, "properties": {"panchayat_id": "MP0112", "name": "Synthetic Panchayat MP0112", "block_id": "MB01"}}, {"type": "Feature", "geometry": {"type": "Polygon", "coordinates": [[[75.528, 29.08445], [75.57024, 29.08718], [75.57211, 29.06163], [75.53335, 29.05265], [75.52716, 29.06745], [75.52684, 29.08338], [75.528, 29.08445]]]}, "properties": {"panchayat_id": "MP0212", "name": "Synthetic Panchayat MP0212", "block_id": "MB02"}}, {"type": "Feature", "geometry": {"type": "Polygon", "coordinates": [[[75.57024, 29.08718], [75.58132, 29.09977], [75.61817, 29.08524], [75.61949, 29.08388], [75.61698, 29.06219], [75.57705, 29.056], [75.57211, 29.06163], [75.57024, 29.08718]]]}, "properties": {"panchayat_id": "MP0213", "name": "Synthetic Panchayat MP0213", "block_id": "MB02"}}, {"type": "Feature", "geometry": {"type": "Polygon", "coordinates": [[[75.61949, 29.08388], [75.66812, 29.0983], [75.66846, 29.09779], [75.66678, 29.05196], [75.62582, 29.03855], [75.61698, 29.06219], [75.61949, 29.08388]]]}, "properties": {"panchayat_id": "MP0214", "name": "Synthetic Panchayat MP0214", "block_id": "MB02"}}, {"type": "Feature", "geometry": {"type": "Polygon", "coordinates": [[[75.66846, 29.09779], [75.70388, 29.08081], [75.70889, 29.05763], [75.67828, 29.04218], [75.66678, 29.05196], [75.66846, 29.09779]]]}, "properties": {"panchayat_id": "MP0215", "name": "Synthetic Panchayat MP0215", "block_id": "MB02"}}, {"type": "Feature", "geometry": {"type": "Polygon", "coordinates": [[[75.70889, 29.05763], [75.70388, 29.08081], [75.72092, 29.09086], [75.74981, 29.08074], [75.74599, 29.05334], [75.7258, 29.04532], [75.70889, 29.05763]]]}, "properties": {"panchayat_id": "MP0311", "name": "Synthetic Panchayat MP0311", "block_id": "MB03"}}, {"type": "Feature", "geometry": {"type": "Polygon", "coordinates": [[[75.74981, 29.08074], [75.76622, 29.09561], [75.79068, 29.08427], [75.80007, 29.0716], [75.80246, 29.0583], [75.80107, 29.05471], [75.7612, 29.04348], [75.74599, 29.05334], [75.74981, 29.08074]]]}, "properties": {"panchayat_id": "MP0312", "name": "Synthetic Panchayat MP0312", "block_id": "MB03"}}, {"type": "Feature", "geometry": {"type": "Polygon", "coordinates": [[[75.80007, 29.0716], [75.86536, 29.11878], [75.87205, 29.12089], [75.87205, 29.06081], [75.80246, 29.0583], [75.80007, 29.0716]]]}, "properties": {"panchayat_id": "MP0313", "name": "Synthetic Panchayat MP0313", "block_id": "MB03"}}, {"type": "Feature", "geometry": {"type": "Polygon", "coordinates": [[[75.44246, 29.1119], [75.44553, 29.10499], [75.38014, 29.07397], [75.38014, 29.13316], [75.44246, 29.1119]]]}, "properties": {"panchayat_id": "MP0113", "name": "Synthetic Panchayat MP0113", "block_id": "MB01"}}, {"type": "Feature", "geometry": {"type": "Polygon", "coordinates": [[[75.45525, 29.10563], [75.49573, 29.14312], [75.50017, 29.13717], [75.49611, 29.09445], [75.45525, 29.10563]]]}, "properties": {"panchayat_id": "MP0401", "name": "Synthetic Panchayat MP0401", "block_id": "MB04"}}, {"type": "Feature", "geometry": {"type": "Polygon", "coordinates": [[[75.49628, 29.0942], [75.49611, 29.09445], [75.50017, 29.13717], [75.5384, 29.1256], [75.528, 29.08445], [75.52684, 29.08338], [75.49628, 29.0942]]]}, "properties": {"panchayat_id": "MP0402", "name": "Synthetic Panchayat MP0402", "block_id": "MB04"}}, {"type": "Feature", "geometry": {"type": "Polygon", "coordinates": [[[75.5384, 29.1256], [75.54116, 29.12717], [75.57606, 29.1215], [75.58132, 29.09977], [75.57024, 29.08718], [75.528, 29.08445], [75.5384, 29.1256]]]}, "properties": {"panchayat_id": "MP0216", "name": "Synthetic Panchayat MP0216", "block_id": "MB02"}}, {"type": "Feature", "geometry": {"type": "Polygon", "coordinates": [[[75.58114, 29.12899], [75.61937, 29.13342], [75.61817, 29.08524], [75.58132, 29.09977], [75.57606, 29.1215], [75.58114, 29.12899]]]}, "properties": {"panchayat_id": "MP0501", "name": "Synthetic Panchayat MP0501", "block_id": "MB05"}}, {"type": "Feature", "geometry": {"type": "Polygon", "coordinates": [[[75.61817, 29.08524], [75.61937, 29.13342], [75.62154, 29.13548], [75.66055, 29.12676], [75.66949, 29.1083], [75.66812, 29.0983], [75.61949, 29.08388], [75.61817, 29.08524]]]}, "properties": {"panchayat_id": "MP0502", "name": "Synthetic Panchayat MP0502", "block_id": "MB05"}}, {"type": "Feature", "geometry": {"type": "Polygon", "coordinates": [[[75.66812, 29.0983], [75.66949, 29.1083], [75.71325, 29.13182], [75.72357, 29.12365], [75.72092, 29.09086], [75.70388, 29.08081], [75.66846, 29.09779], [75.66812, 29.0983]]]}, "properties": {"panchayat_id": "MP0314", "name": "Synthetic Panchayat MP0314", "block_id": "MB03"}}, {"type": "Feature", "geometry": {"type": "Polygon", "coordinates": [[[75.72357, 29.12365], [75.75535, 29.12274], [75.76339, 29.11155], [75.76622, 29.09561], [75.74981, 29.08074], [75.72092, 29.09086], [75.72357, 29.12365]]]}, "properties": {"panchayat_id": "MP0315", "name": "Synthetic Panchayat MP0315", "block_id": "MB03"}}, {"type": "Feature", "geometry": {"type": "Polygon", "coordinates": [[[75.76339, 29.11155], [75.7964, 29.12802], [75.80884, 29.11561], [75.79068, 29.08427], [75.76622, 29.09561], [75.76339, 29.11155]]]}, "properties": {"panchayat_id": "MP0601", "name": "Synthetic Panchayat MP0601", "block_id": "MB06"}}, {"type": "Feature", "geometry": {"type": "Polygon", "coordinates": [[[75.80884, 29.11561], [75.86536, 29.11878], [75.80007, 29.0716], [75.79068, 29.08427], [75.80884, 29.11561]]]}, "properties": {"panchayat_id": "MP0316", "name": "Synthetic Panchayat MP0316", "block_id": "MB03"}}, {"type": "Feature", "geometry": {"type": "Polygon", "coordinates": [[[75.39276, 29.16637], [75.44685, 29.15392], [75.44246, 29.1119], [75.38014, 29.13316], [75.38014, 29.16423], [75.39276, 29.16637]]]}, "properties": {"panchayat_id": "MP0403", "name": "Synthetic Panchayat MP0403", "block_id": "MB04"}}, {"type": "Feature", "geometry": {"type": "Polygon", "coordinates": [[[75.44553, 29.10499], [75.44246, 29.1119], [75.44685, 29.15392], [75.4543, 29.15893], [75.49383, 29.14804], [75.49424, 29.14775], [75.49573, 29.14312], [75.45525, 29.10563], [75.44597, 29.10463], [75.44553, 29.10499]]]}, "properties": {"panchayat_id": "MP0404", "name": "Synthetic Panchayat MP0404", "block_id": "MB04"}}, {"type": "Feature", "geometry": {"type": "Polygon", "coordinates": [[[75.49424, 29.14775], [75.53044, 29.17851], [75.54455, 29.16504], [75.54116, 29.12717], [75.5384, 29.1256], [75.50017, 29.13717], [75.49573, 29.14312], [75.49424, 29.14775]]]}, "properties": {"panchayat_id": "MP0405", "name": "Synthetic Panchayat MP0405", "block_id": "MB04"}}, {"type": "Feature", "geometry": {"type": "Polygon", "coordinates": [[[75.54116, 29.12717], [75.54455, 29.16504], [75.57294, 29.16547], [75.58043, 29.15881], [75.58114, 29.12899], [75.57606, 29.1215], [75.54116, 29.12717]]]}, "properties": {"panchayat_id": "MP0503", "name": "Synthetic Panchayat MP0503", "block_id": "MB05"}}, {"type": "Feature", "geometry": {"type": "Polygon", "coordinates": [[[75.61976, 29.1724], [75.62154, 29.13548], [75.61937, 29.13342], [75.58114, 29.12899], [75.58043, 29.15881], [75.61976, 29.1724]]]}, "properties": {"panchayat_id": "MP0504", "name": "Synthetic Panchayat MP0504", "block_id": "MB05"}}, {"type": "Feature", "geometry": {"type": "Polygon", "coordinates": [[[75.62142, 29.17499], [75.66543, 29.1559], [75.66055, 29.12676], [75.62154, 29.13548], [75.61976, 29.1724], [75.62137, 29.17496], [75.62142, 29.17499]]]}, "properties": {"panchayat_id": "MP0505", "name": "Synthetic Panchayat MP0505", "block_id": "MB05"}}, {"type": "Feature", "geometry": {"type": "Polygon", "coordinates": [[[75.66935, 29.1595], [75.7117, 29.16129], [75.71325, 29.13182], [75.66949, 29.1083], [75.66055, 29.12676], [75.66543, 29.1559], [75.66935, 29.1595]]]}, "properties": {"panchayat_id": "MP0506", "name": "Synthetic Panchayat MP0506", "block_id": "MB05"}}, {"type": "Feature", "geometry": {"type": "Polygon", "coordinates": [[[75.7117, 29.16129], [75.71262, 29.16269], [75.76332, 29.15492], [75.75535, 29.12274], [75.72357, 29.12365], [75.71325, 29.13182], [75.7117, 29.16129]]]}, "properties": {"panchayat_id": "MP0602", "name": "Synthetic Panchayat MP0602", "block_id": "MB06"}}, {"type": "Feature", "geometry": {"type": "Polygon", "coordinates": [[[75.76415, 29.15572], [75.79676, 29.14657], [75.7964, 29.12802], [75.76339, 29.11155], [75.75535, 29.12274], [75.76332, 29.15492], [75.76415, 29.15572]]]}, "properties": {"panchayat_id": "MP0603", "name": "Synthetic Panchayat MP0603", "block_id": "MB06"}}, {"type": "Feature", "geometry": {"type": "Polygon", "coordinates": [[[75.8153, 29.15939], [75.87205, 29.12825], [75.87205, 29.12089], [75.86536, 29.11878], [75.80884, 29.11561], [75.7964, 29.12802], [75.79676, 29.14657], [75.8153, 29.15939]]]}, "properties": {"panchayat_id": "MP0604", "name": "Synthetic Panchayat MP0604", "block_id": "MB06"}}, {"type": "Feature", "geometry": {"type": "Polygon", "coordinates": [[[75.44484, 29.21573], [75.45789, 29.19394], [75.4543, 29.15893], [75.44685, 29.15392], [75.39276, 29.16637], [75.44484, 29.21573]]]}, "properties": {"panchayat_id": "MP0406", "name": "Synthetic Panchayat MP0406", "block_id": "MB04"}}, {"type": "Feature", "geometry": {"type": "Polygon", "coordinates": [[[75.4543, 29.15893], [75.45789, 29.19394], [75.4889, 29.19336], [75.49383, 29.14804], [75.4543, 29.15893]]]}, "properties": {"panchayat_id": "MP0407", "name": "Synthetic Panchayat MP0407", "block_id": "MB04"}}, {"type": "Feature", "geometry": {"type": "Polygon", "coordinates": [[[75.4889, 29.19336], [75.49946, 29.20034], [75.51782, 29.1991], [75.53034, 29.17965], [75.53044, 29.17851], [75.49424, 29.14775], [75.49383, 29.14804], [75.4889, 29.19336]]]}, "properties": {"panchayat_id": "MP0408", "name": "Synthetic Panchayat MP0408", "block_id": "MB04"}}, {"type": "Feature", "geometry": {"type": "Polygon", "coordinates": [[[75.53034, 29.17965], [75.5717, 29.21026], [75.57517, 29.2095], [75.577, 29.20484], [75.57294, 29.16547], [75.54455, 29.16504], [75.53044, 29.17851], [75.53034, 29.17965]]]}, "properties": {"panchayat_id": "MP0507", "name": "Synthetic Panchayat MP0507", "block_id": "MB05"}}, {"type": "Feature", "geometry": {"type": "Polygon", "coordinates": [[[75.57294, 29.16547], [75.577, 29.20484], [75.62137, 29.17496], [75.61976, 29.1724], [75.58043, 29.15881], [75.57294, 29.16547]]]}, "properties": {"panchayat_id": "MP0508", "name": "Synthetic Panchayat MP0508", "block_id": "MB05"}}, {"type": "Feature", "geometry": {"type": "Polygon", "coordinates": [[[75.62142, 29.17499], [75.62644, 29.1857], [75.66918, 29.20001], [75.66935, 29.1595], [75.66543, 29.1559], [75.62142, 29.17499]]]}, "properties": {"panchayat_id": "MP0509", "name": "Synthetic Panchayat MP0509", "block_id": "MB05"}}, {"type": "Feature", "geometry": {"type": "Polygon", "coordinates": [[[75.67317, 29.20598], [75.71462, 29.18084], [75.71262, 29.16269], [75.7117, 29.16129], [75.66935, 29.1595], [75.66918, 29.20001], [75.67317, 29.20598]]]}, "properties": {"panchayat_id": "MP0510", "name": "Synthetic Panchayat MP0510", "block_id": "MB05"}}, {"type": "Feature", "geometry": {"type": "Polygon", "coordinates": [[[75.71462, 29.18084], [75.72822, 29.19636], [75.76004, 29.19296], [75.76845, 29.18598], [75.76415, 29.15572], [75.76332, 29.15492], [75.71262, 29.16269], [75.71462, 29.18084]]]}, "properties": {"panchayat_id": "MP0605", "name": "Synthetic Panchayat MP0605", "block_id": "MB06"}}, {"type": "Feature", "geometry": {"type": "Polygon", "coordinates": [[[75.76845, 29.18598], [75.80733, 29.19646], [75.8153, 29.15939], [75.79676, 29.14657], [75.76415, 29.15572], [75.76845, 29.18598]]]}, "properties": {"panchayat_id": "MP0606", "name": "Synthetic Panchayat MP0606", "block_id": "MB06"}}, {"type": "Feature", "geometry": {"type": "Polygon", "coordinates": [[[75.8153, 29.15939], [75.80733, 29.19646], [75.81055, 29.20148], [75.87205, 29.19328], [75.87205, 29.12825], [75.8153, 29.15939]]]}, "properties": {"panchayat_id": "MP0607", "name": "Synthetic Panchayat MP0607", "block_id": "MB06"}}, {"type": "Feature", "geometry": {"type": "Polygon", "coordinates": [[[75.43914, 29.22524], [75.44476, 29.21706], [75.44484, 29.21573], [75.39276, 29.16637], [75.38014, 29.16423], [75.38014, 29.23264], [75.43914, 29.22524]]]}, "properties": {"panchayat_id": "MP0409", "name": "Synthetic Panchayat MP0409", "block_id": "MB04"}}, {"type": "Feature", "geometry": {"type": "Polygon", "coordinates": [[[75.49946, 29.20034], [75.4889, 29.19336], [75.45789, 29.19394], [75.44484, 29.21573], [75.44476, 29.21706], [75.48491, 29.23157], [75.49946, 29.20034]]]}, "properties": {"panchayat_id": "MP0410", "name": "Synthetic Panchayat MP0410", "block_id": "MB04"}}, {"type": "Feature", "geometry": {"type": "Polygon", "coordinates": [[[75.48491, 29.23157], [75.48956, 29.23853], [75.53279, 29.2375], [75.51782, 29.1991], [75.49946, 29.20034], [75.48491, 29.23157]]]}, "properties": {"panchayat_id": "MP0411", "name": "Synthetic Panchayat MP0411", "block_id": "MB04"}}, {"type": "Feature", "geometry": {"type": "Polygon", "coordinates": [[[75.51782, 29.1991], [75.53279, 29.2375], [75.53635, 29.24025], [75.5717, 29.21026], [75.53034, 29.17965], [75.51782, 29.1991]]]}, "properties": {"panchayat_id": "MP0412", "name": "Synthetic Panchayat MP0412", "block_id": "MB04"}}, {"type": "Feature", "geometry": {"type": "Polygon", "coordinates": [[[75.57517, 29.2095], [75.57708, 29.21118], [75.61305, 29.22413], [75.6221, 29.21681], [75.62644, 29.1857], [75.62142, 29.17499], [75.62137, 29.17496], [75.577, 29.20484], [75.57517, 29.2095]]]}, "properties": {"panchayat_id": "MP0511", "name": "Synthetic Panchayat MP0511", "block_id": "MB05"}}, {"type": "Feature", "geometry": {"type": "Polygon", "coordinates": [[[75.67308, 29.22375], [75.67317, 29.20598], [75.66918, 29.20001], [75.62644, 29.1857], [75.6221, 29.21681], [75.66551, 29.23152], [75.67308, 29.22375]]]}, "properties": {"panchayat_id": "MP0512", "name": "Synthetic Panchayat MP0512", "block_id": "MB05"}}, {"type": "Feature", "geometry": {"type": "Polygon", "coordinates": [[[75.67317, 29.20598], [75.67308, 29.22375], [75.72004, 29.23658], [75.72822, 29.19636], [75.71462, 29.18084], [75.67317, 29.20598]]]}, "properties": {"panchayat_id": "MP0608", "name": "Synthetic Panchayat MP0608", "block_id": "MB06"}}, {"type": "Feature", "geometry": {"type": "Polygon", "coordinates": [[[75.72004, 29.23658], [75.72045, 29.23723], [75.76318, 29.229], [75.76004, 29.19296], [75.72822, 29.19636], [75.72004, 29.23658]]]}, "properties": {"panchayat_id": "MP0609", "name": "Synthetic Panchayat MP0609", "block_id": "MB06"}}, {"type": "Feature", "geometry": {"type": "Polygon", "coordinates": [[[75.76004, 29.19296], [75.76318, 29.229], [75.7727, 29.23591], [75.80988, 29.20932], [75.81055, 29.20148], [75.80733, 29.19646], [75.76845, 29.18598], [75.76004, 29.19296]]]}, "properties": {"panchayat_id": "MP0610", "name": "Synthetic Panchayat MP0610", "block_id": "MB06"}}, {"type": "Feature", "geometry": {"type": "Polygon", "coordinates": [[[75.81055, 29.20148], [75.80988, 29.20932], [75.81808, 29.2288], [75.87205, 29.24117], [75.87205, 29.19328], [75.81055, 29.20148]]]}, "properties": {"panchayat_id": "MP0611", "name": "Synthetic Panchayat MP0611", "block_id": "MB06"}}, {"type": "Feature", "geometry": {"type": "Polygon", "coordinates": [[[75.43914, 29.22524], [75.38014, 29.23264], [75.38014, 29.27519], [75.4452, 29.27519], [75.43914, 29.22524]]]}, "properties": {"panchayat_id": "MP0413", "name": "Synthetic Panchayat MP0413", "block_id": "MB04"}}, {"type": "Feature", "geometry": {"type": "Polygon", "coordinates": [[[75.43914, 29.22524], [75.4452, 29.27519], [75.47962, 29.27519], [75.48956, 29.23853], [75.48491, 29.23157], [75.44476, 29.21706], [75.43914, 29.22524]]]}, "properties": {"panchayat_id": "MP0414", "name": "Synthetic Panchayat MP0414", "block_id": "MB04"}}, {"type": "Feature", "geometry": {"type": "Polygon", "coordinates": [[[75.53635, 29.24025], [75.53279, 29.2375], [75.48956, 29.23853], [75.47962, 29.27519], [75.54469, 29.27519], [75.53635, 29.24025]]]}, "properties": {"panchayat_id": "MP0415", "name": "Synthetic Panchayat MP0415", "block_id": "MB04"}}, {"type": "Feature", "geometry": {"type": "Polygon", "coordinates": [[[75.54469, 29.27519], [75.58801, 29.27519], [75.57708, 29.21118], [75.57517, 29.2095], [75.5717, 29.21026], [75.53635, 29.24025], [75.54469, 29.27519]]]}, "properties": {"panchayat_id": "MP0513", "name": "Synthetic Panchayat MP0513", "block_id": "MB05"}}, {"type": "Feature", "geometry": {"type": "Polygon", "coordinates": [[[75.58801, 29.27519], [75.61101, 29.27519], [75.61305, 29.22413], [75.57708, 29.21118], [75.58801, 29.27519]]]}, "properties": {"panchayat_id": "MP0514", "name": "Synthetic Panchayat MP0514", "block_id": "MB05"}}, {"type": "Feature", "geometry": {"type": "Polygon", "coordinates": [[[75.66551, 29.23152], [75.6221, 29.21681], [75.61305, 29.22413], [75.61101, 29.27519], [75.6537, 29.27519], [75.66551, 29.23152]]]}, "properties": {"panchayat_id": "MP0515", "name": "Synthetic Panchayat MP0515", "block_id": "MB05"}}, {"type": "Feature", "geometry": {"type": "Polygon", "coordinates": [[[75.72045, 29.23723], [75.72004, 29.23658], [75.67308, 29.22375], [75.66551, 29.23152], [75.6537, 29.27519], [75.72433, 29.27519], [75.72045, 29.23723]]]}, "properties": {"panchayat_id": "MP0516", "name": "Synthetic Panchayat MP0516", "block_id": "MB05"}}, {"type": "Feature", "geometry": {"type": "Polygon", "coordinates": [[[75.7727, 29.23591], [75.76318, 29.229], [75.72045, 29.23723], [75.72433, 29.27519], [75.77961, 29.27519], [75.7727, 29.23591]]]}, "properties": {"panchayat_id": "MP0612", "name": "Synthetic Panchayat MP0612", "block_id": "MB06"}}, {"type": "Feature", "geometry": {"type": "Polygon", "coordinates": [[[75.77961, 29.27519], [75.80854, 29.27519], [75.81808, 29.2288], [75.80988, 29.20932], [75.7727, 29.23591], [75.77961, 29.27519]]]}, "properties": {"panchayat_id": "MP0613", "name": "Synthetic Panchayat MP0613", "block_id": "MB06"}}, {"type": "Feature", "geometry": {"type": "Polygon", "coordinates": [[[75.81808, 29.2288], [75.80854, 29.27519], [75.87205, 29.27519], [75.87205, 29.24117], [75.81808, 29.2288]]]}, "properties": {"panchayat_id": "MP0614", "name": "Synthetic Panchayat MP0614", "block_id": "MB06"}}]}
