{"type": "FeatureCollection", "features": [{"type": "Feature", "properties": {"block_id": "MB01"}, "geometry": {"type": "Polygon", "coordinates": [[[75.43831549336706, 28.937557345023247], [75.38014383979761, 28.937557345023247], [75.38014383979761, 29.01398631810734], [75.38014383979761, 29.066170874949766], [75.38014383979761, 29.073972210820944], [75.38014383979761, 29.133160559431015], [75.4424602986543, 29.111904003704947], [75.44553381530237, 29.10498535745266], [75.4459709897345, 29.104631314473796], [75.45524654542629, 29.10563176683147], [75.49611331825358, 29.09445201212995], [75.49628269643765, 29.094197025124313], [75.52684105539528, 29.083375274968496], [75.52715524154391, 29.067447364087833], [75.53335337774102, 29.05264687376264], [75.5324350443863, 29.026745089549042], [75.53797532153658, 29.01934976677463], [75.53903989335623, 29.003038791703236], [75.5342896792998, 28.996182289833577], [75.52889769449294, 28.937557345023247], [75.50154837953828, 28.937557345023247], [75.43831549336706, 28.937557345023247]]]}}, {"type": "Feature", "properties": {"block_id": "MB02"}, "geometry": {"type": "Polygon", "coordinates": [[[75.56547510360318, 28.937557345023247], [75.52889769449294, 28.937557345023247], [75.5342896792998, 28.996182289833577], [75.53903989335623, 29.003038791703236], [75.53797532153658, 29.01934976677463], [75.5324350443863, 29.026745089549042], [75.53335337774102, 29.05264687376264], [75.52715524154391, 29.067447364087833], [75.52684105539528, 29.083375274968496], [75.5280030945596, 29.084448685523792], [75.53839836671321, 29.125602001395546], [75.54116054353145, 29.1271650483043], [75.57606400381714, 29.12149946945362], [75.58131796421195, 29.099766768855897], [75.61816883939058, 29.085237607381774], [75.61948777064336, 29.083882206537453], [75.66811988458336, 29.098297011959893], [75.66845750922704, 29.09779178526962], [75.70387861276068, 29.080810990310045], [75.70889293270398, 29.05763142089677], [75.67828416810397, 29.042179958063837], [75.68107745838208, 29.02461821897467], [75.71566010199405, 29.01436526280937], [75.70812023699729, 28.98964538975479], [75.70610842849885, 28.98734017717225], [75.70694442369147, 28.937557345023247], [75.66427199482676, 28.937557345023247], [75.63594046210356, 28.937557345023247], [75.56547510360318, 28.937557345023247]]]}}, {"type": "Feature", "properties": {"block_id": "MB03"}, "geometry": {"type": "Polygon", "coordinates": [[[75.73735503514597, 28.937557345023247], [75.70694442369147, 28.937557345023247], [75.70610842849885, 28.98734017717225], [75.70812023699729, 28.98964538975479], [75.71566010199405, 29.01436526280937], [75.68107745838208, 29.02461821897467], [75.67828416810397, 29.042179958063837], [75.70889293270398, 29.05763142089677], [75.70387861276068, 29.080810990310045], [75.66845750922704, 29.09779178526962], [75.66811988458336, 29.098297011959893], [75.66949275424422, 29.10829810539806], [75.71325481949123, 29.131816584233242], [75.723573180132, 29.123652463275974], [75.75535185979602, 29.122735140281865], [75.76339344959456, 29.111546719912273], [75.7662199970754, 29.09560570919697], [75.79068110290198, 29.084266426785742], [75.80884171711037, 29.115610091647394], [75.86536409635217, 29.11877504836225], [75.87204977643331, 29.120888793965158], [75.87204977643331, 29.0608057875704], [75.87204977643331, 29.032513772575545], [75.87204977643331, 28.987470036288247], [75.87204977643331, 28.937557345023247], [75.80899167385792, 28.937557345023247], [75.73735503514597, 28.937557345023247]]]}}, {"type": "Feature", "properties": {"block_id": "MB04"}, "geometry": {"type": "Polygon", "coordinates": [[[75.38014383979761, 29.164225883984876], [75.38014383979761, 29.23263983650404], [75.38014383979761, 29.275193499424315], [75.44520047654639, 29.275193499424315], [75.47961780722014, 29.275193499424315], [75.54468915057852, 29.275193499424315], [75.53635011825315, 29.240253051502993], [75.57169923911218, 29.210257738650036], [75.53034466095868, 29.17965206072202], [75.5304407299761, 29.17851289358812], [75.54454547964582, 29.16504342754923], [75.54116054353145, 29.1271650483043], [75.53839836671321, 29.125602001395546], [75.5280030945596, 29.084448685523792], [75.52684105539528, 29.083375274968496], [75.49628269643765, 29.094197025124313], [75.49611331825358, 29.09445201212995], [75.45524654542629, 29.10563176683147], [75.4459709897345, 29.104631314473796], [75.44553381530237, 29.10498535745266], [75.4424602986543, 29.111904003704947], [75.38014383979761, 29.133160559431015], [75.38014383979761, 29.164225883984876]]]}}, {"type": "Feature", "properties": {"block_id": "MB05"}, "geometry": {"type": "Polygon", "coordinates": [[[75.57606400381714, 29.12149946945362], [75.54116054353145, 29.1271650483043], [75.54454547964582, 29.16504342754923], [75.5304407299761, 29.17851289358812], [75.53034466095868, 29.17965206072202], [75.57169923911218, 29.210257738650036], [75.53635011825315, 29.240253051502993], [75.54468915057852, 29.275193499424315], [75.58800867635476, 29.275193499424315], [75.61100691778213, 29.275193499424315], [75.65370032239925, 29.275193499424315], [75.72432774607226, 29.275193499424315], [75.72045478009042, 29.237230837279], [75.72003570626036, 29.236578871411268], [75.6730784182502, 29.223749191063778], [75.67316781581134, 29.205981452694843], [75.71461701364764, 29.180844218181537], [75.71262202646697, 29.1626887544737], [75.71169835534683, 29.161292814779124], [75.71325481949123, 29.131816584233242], [75.66949275424422, 29.10829810539806], [75.66811988458336, 29.098297011959893], [75.61948777064336, 29.083882206537453], [75.61816883939058, 29.085237607381774], [75.58131796421195, 29.099766768855897], [75.57606400381714, 29.12149946945362]]]}}, {"type": "Feature", "properties": {"block_id": "MB06"}, "geometry": {"type": "Polygon", "coordinates": [[[75.75535185979602, 29.122735140281865], [75.723573180132, 29.123652463275974], [75.71325481949123, 29.131816584233242], [75.71169835534683, 29.161292814779124], [75.71262202646697, 29.1626887544737], [75.71461701364764, 29.180844218181537], [75.67316781581134, 29.205981452694843], [75.6730784182502, 29.223749191063778], [75.72003570626036, 29.236578871411268], [75.72045478009042, 29.237230837279], [75.72432774607226, 29.275193499424315], [75.77961277709714, 29.275193499424315], [75.80854099680957, 29.275193499424315], [75.87204977643331, 29.275193499424315], [75.87204977643331, 29.24117079503437], [75.87204977643331, 29.19327542096707], [75.87204977643331, 29.12825030771037], [75.87204977643331, 29.120888793965158], [75.86536409635217, 29.11877504836225], [75.80884171711037, 29.115610091647394], [75.79068110290198, 29.084266426785742], [75.7662199970754, 29.09560570919697], [75.76339344959456, 29.111546719912273], [75.75535185979602, 29.122735140281865]]]}}]}