{"type": "FeatureCollection", "features": [{"type": "Feature", "properties": {"panchayat_id": "MP0101", "block_id": "MB01"}, "geometry": {"type": "Polygon", "coordinates": [[[75.39723598071805, 29.011639198729576], [75.442439909838, 28.968774702245728], [75.43831549336706, 28.937557345023247], [75.38014383979761, 28.937557345023247], [75.38014383979761, 29.01398631810734], [75.39723598071805, 29.011639198729576]]]}}, {"type": "Feature", "properties": {"panchayat_id": "MP0102", "block_id": "MB01"}, "geometry": {"type": "Polygon", "coordinates": [[[75.442439909838, 28.968774702245728], [75.46047844493097, 28.989509257885526], [75.48502575344462, 28.98945348369078], [75.48776880449101, 28.987298584436886], [75.50154837953828, 28.937557345023247], [75.43831549336706, 28.937557345023247], [75.442439909838, 28.968774702245728]]]}}, {"type": "Feature", "properties": {"panchayat_id": "MP0103", "block_id": "MB01"}, "geometry": {"type": "Polygon", "coordinates": [[[75.5342896792998, 28.996182289833577], [75.52889769449294, 28.937557345023247], [75.50154837953828, 28.937557345023247], [75.48776880449101, 28.987298584436886], [75.5342896792998, 28.996182289833577]]]}}, {"type": "Feature", "properties": {"panchayat_id": "MP0201", "block_id": "MB02"}, "geometry": {"type": "Polygon", "coordinates": [[[75.5342896792998, 28.996182289833577], [75.53903989335623, 29.003038791703236], [75.58112487869022, 28.98255915170416], [75.56547510360318, 28.937557345023247], [75.52889769449294, 28.937557345023247], [75.5342896792998, 28.996182289833577]]]}}, {"type": "Feature", "properties": {"panchayat_id": "MP0202", "block_id": "MB02"}, "geometry": {"type": "Polygon", "coordinates": [[[75.58112487869022, 28.98255915170416], [75.58687209413964, 28.985165618011674], [75.62211264097296, 28.97300269543345], [75.63594046210356, 28.937557345023247], [75.56547510360318, 28.937557345023247], [75.58112487869022, 28.98255915170416]]]}}, {"type": "Feature", "properties": {"panchayat_id": "MP0203", "block_id": "MB02"}, "geometry": {"type": "Polygon", "coordinates": [[[75.63188020740134, 28.990937297425553], [75.67102636900236, 28.98452873231801], [75.66427199482676, 28.937557345023247], [75.63594046210356, 28.937557345023247], [75.62211264097296, 28.97300269543345], [75.63188020740134, 28.990937297425553]]]}}, {"type": "Feature", "properties": {"panchayat_id": "MP0204", "block_id": "MB02"}, "geometry": {"type": "Polygon", "coordinates": [[[75.67102636900236, 28.98452873231801], [75.67472278354225, 28.990231183913398], [75.70610842849885, 28.98734017717225], [75.70694442369147, 28.937557345023247], [75.66427199482676, 28.937557345023247], [75.67102636900236, 28.98452873231801]]]}}, {"type": "Feature", "properties": {"panchayat_id": "MP0301", "block_id": "MB03"}, "geometry": {"type": "Polygon", "coordinates": [[[75.70812023699729, 28.98964538975479], [75.75061697539931, 28.975366057248753], [75.73735503514597, 28.937557345023247], [75.70694442369147, 28.937557345023247], [75.70610842849885, 28.98734017717225], [75.70812023699729, 28.98964538975479]]]}}, {"type": "Feature", "properties": {"panchayat_id": "MP0302", "block_id": "MB03"}, "geometry": {"type": "Polygon", "coordinates": [[[75.75061697539931, 28.975366057248753], [75.7580562172716, 28.98430024519751], [75.8033995207104, 28.984892381762197], [75.8038425061019, 28.984239982214014], [75.80899167385792, 28.937557345023247], [75.73735503514597, 28.937557345023247], [75.75061697539931, 28.975366057248753]]]}}, {"type": "Feature", "properties": {"panchayat_id": "MP0303", "block_id": "MB03"}, "geometry": {"type": "Polygon", "coordinates": [[[75.8038425061019, 28.984239982214014], [75.87204977643331, 28.987470036288247], [75.87204977643331, 28.937557345023247], [75.80899167385792, 28.937557345023247], [75.8038425061019, 28.984239982214014]]]}}, {"type": "Feature", "properties": {"panchayat_id": "MP0104", "block_id": "MB01"}, "geometry": {"type": "Polygon", "coordinates": [[[75.43562747221128, 29.02394776469318], [75.4521122790151, 29.013107204911655], [75.46047844493097, 28.989509257885526], [75.442439909838, 28.968774702245728], [75.39723598071805, 29.011639198729576], [75.43562747221128, 29.02394776469318]]]}}, {"type": "Feature", "properties": {"panchayat_id": "MP0105", "block_id": "MB01"}, "geometry": {"type": "Polygon", "coordinates": [[[75.48374390620152, 29.036727227241183], [75.49352727030114, 29.027887451134863], [75.48502575344462, 28.98945348369078], [75.46047844493097, 28.989509257885526], [75.4521122790151, 29.013107204911655], [75.48374390620152, 29.036727227241183]]]}}, {"type": "Feature", "properties": {"panchayat_id": "MP0106", "block_id": "MB01"}, "geometry": {"type": "Polygon", "coordinates": [[[75.49352727030114, 29.027887451134863], [75.5324350443863, 29.026745089549042], [75.53797532153658, 29.01934976677463], [75.53903989335623, 29.003038791703236], [75.5342896792998, 28.996182289833577], [75.48776880449101, 28.987298584436886], [75.48502575344462, 28.98945348369078], [75.49352727030114, 29.027887451134863]]]}}, {"type": "Feature", "properties": {"panchayat_id": "MP0205", "block_id": "MB02"}, "geometry": {"type": "Polygon", "coordinates": [[[75.53797532153658, 29.01934976677463], [75.57493823118409, 29.031713382670116], [75.59512219583269, 29.01978652858067], [75.58687209413964, 28.985165618011674], [75.58112487869022, 28.98255915170416], [75.53903989335623, 29.003038791703236], [75.53797532153658, 29.01934976677463]]]}}, {"type": "Feature", "properties": {"panchayat_id": "MP0206", "block_id": "MB02"}, "geometry": {"type": "Polygon", "coordinates": [[[75.59512219583269, 29.01978652858067], [75.62456516598826, 29.03270827760519], [75.6349263953821, 29.01569847772594], [75.63188020740134, 28.990937297425553], [75.62211264097296, 28.97300269543345], [75.58687209413964, 28.985165618011674], [75.59512219583269, 29.01978652858067]]]}}, {"type": "Feature", "properties": {"panchayat_id": "MP0207", "block_id": "MB02"}, "geometry": {"type": "Polygon", "coordinates": [[[75.6349263953821, 29.01569847772594], [75.67013160030805, 29.011167977818147], [75.67472278354225, 28.990231183913398], [75.67102636900236, 28.98452873231801], [75.63188020740134, 28.990937297425553], [75.6349263953821, 29.01569847772594]]]}}, {"type": "Feature", "properties": {"panchayat_id": "MP0208", "block_id": "MB02"}, "geometry": {"type": "Polygon", "coordinates": [[[75.67013160030805, 29.011167977818147], [75.68107745838208, 29.02461821897467], [75.71566010199405, 29.01436526280937], [75.70812023699729, 28.98964538975479], [75.70610842849885, 28.98734017717225], [75.67472278354225, 28.990231183913398], [75.67013160030805, 29.011167977818147]]]}}, {"type": "Feature", "properties": {"panchayat_id": "MP0304", "block_id": "MB03"}, "geometry": {"type": "Polygon", "coordinates": [[[75.71566010199405, 29.01436526280937], [75.71899294594392, 29.01656993787126], [75.74845686544849, 29.004542230750268], [75.7580562172716, 28.98430024519751], [75.75061697539931, 28.975366057248753], [75.70812023699729, 28.98964538975479], [75.71566010199405, 29.01436526280937]]]}}, {"type": "Feature", "properties": {"panchayat_id": "MP0305", "block_id": "MB03"}, "geometry": {"type": "Polygon", "coordinates": [[[75.74845686544849, 29.004542230750268], [75.76243796939026, 29.026999856985853], [75.8046269208858, 29.00288869492727], [75.8033995207104, 28.984892381762197], [75.7580562172716, 28.98430024519751], [75.74845686544849, 29.004542230750268]]]}}, {"type": "Feature", "properties": {"panchayat_id": "MP0306", "block_id": "MB03"}, "geometry": {"type": "Polygon", "coordinates": [[[75.8038425061019, 28.984239982214014], [75.8033995207104, 28.984892381762197], [75.8046269208858, 29.00288869492727], [75.81042646098649, 29.017775832830385], [75.87204977643331, 29.032513772575545], [75.87204977643331, 28.987470036288247], [75.8038425061019, 28.984239982214014]]]}}, {"type": "Feature", "properties": {"panchayat_id": "MP0107", "block_id": "MB01"}, "geometry": {"type": "Polygon", "coordinates": [[[75.44488914321511, 29.05862306623519], [75.43562747221128, 29.02394776469318], [75.39723598071805, 29.011639198729576], [75.38014383979761, 29.01398631810734], [75.38014383979761, 29.066170874949766], [75.44488914321511, 29.05862306623519]]]}}, {"type": "Feature", "properties": {"panchayat_id": "MP0108", "block_id": "MB01"}, "geometry": {"type": "Polygon", "coordinates": [[[75.44488914321511, 29.05862306623519], [75.4507981223935, 29.062995760936715], [75.47439672518743, 29.056345381798394], [75.47954663449873, 29.05014606811046], [75.48374390620152, 29.036727227241183], [75.4521122790151, 29.013107204911655], [75.43562747221128, 29.02394776469318], [75.44488914321511, 29.05862306623519]]]}}, {"type": "Feature", "properties": {"panchayat_id": "MP0109", "block_id": "MB01"}, "geometry": {"type": "Polygon", "coordinates": [[[75.47954663449873, 29.05014606811046], [75.52715524154391, 29.067447364087833], [75.53335337774102, 29.05264687376264], [75.5324350443863, 29.026745089549042], [75.49352727030114, 29.027887451134863], [75.48374390620152, 29.036727227241183], [75.47954663449873, 29.05014606811046]]]}}, {"type": "Feature", "properties": {"panchayat_id": "MP0209", "block_id": "MB02"}, "geometry": {"type": "Polygon", "coordinates": [[[75.53335337774102, 29.05264687376264], [75.57210540353077, 29.061634359380726], [75.57705023595534, 29.055998132204234], [75.57493823118409, 29.031713382670116], [75.53797532153658, 29.01934976677463], [75.5324350443863, 29.026745089549042], [75.53335337774102, 29.05264687376264]]]}}, {"type": "Feature", "properties": {"panchayat_id": "MP0210", "block_id": "MB02"}, "geometry": {"type": "Polygon", "coordinates": [[[75.57705023595534, 29.055998132204234], [75.61697596766005, 29.062194289339796], [75.62582229607064, 29.038546186891352], [75.62456516598826, 29.03270827760519], [75.59512219583269, 29.01978652858067], [75.57493823118409, 29.031713382670116], [75.57705023595534, 29.055998132204234]]]}}, {"type": "Feature", "properties": {"panchayat_id": "MP0211", "block_id": "MB02"}, "geometry": {"type": "Polygon", "coordinates": [[[75.62582229607064, 29.038546186891352], [75.66677873681625, 29.05196130109897], [75.67828416810397, 29.042179958063837], [75.68107745838208, 29.02461821897467], [75.67013160030805, 29.011167977818147], [75.6349263953821, 29.01569847772594], [75.62456516598826, 29.03270827760519], [75.62582229607064, 29.038546186891352]]]}}, {"type": "Feature", "properties": {"panchayat_id": "MP0307", "block_id": "MB03"}, "geometry": {"type": "Polygon", "coordinates": [[[75.70889293270398, 29.05763142089677], [75.72579781664639, 29.045315589229947], [75.71899294594392, 29.01656993787126], [75.71566010199405, 29.01436526280937], [75.68107745838208, 29.02461821897467], [75.67828416810397, 29.042179958063837], [75.70889293270398, 29.05763142089677]]]}}, {"type": "Feature", "properties": {"panchayat_id": "MP0308", "block_id": "MB03"}, "geometry": {"type": "Polygon", "coordinates": [[[75.74599049648313, 29.0533385883833], [75.76119684149666, 29.043482132495868], [75.76243796939026, 29.026999856985853], [75.74845686544849, 29.004542230750268], [75.71899294594392, 29.01656993787126], [75.72579781664639, 29.045315589229947], [75.74599049648313, 29.0533385883833]]]}}, {"type": "Feature", "properties": {"panchayat_id": "MP0309", "block_id": "MB03"}, "geometry": {"type": "Polygon", "coordinates": [[[75.80107272869466, 29.05470762437798], [75.81042646098649, 29.017775832830385], [75.8046269208858, 29.00288869492727], [75.76243796939026, 29.026999856985853], [75.76119684149666, 29.043482132495868], [75.80107272869466, 29.05470762437798]]]}}, {"type": "Feature", "properties": {"panchayat_id": "MP0310", "block_id": "MB03"}, "geometry": {"type": "Polygon", "coordinates": [[[75.80246372988279, 29.058298487085445], [75.87204977643331, 29.0608057875704], [75.87204977643331, 29.032513772575545], [75.81042646098649, 29.017775832830385], [75.80107272869466, 29.05470762437798], [75.80246372988279, 29.058298487085445]]]}}, {"type": "Feature", "properties": {"panchayat_id": "MP0110", "block_id": "MB01"}, "geometry": {"type": "Polygon", "coordinates": [[[75.4459709897345, 29.104631314473796], [75.4507981223935, 29.062995760936715], [75.44488914321511, 29.05862306623519], [75.38014383979761, 29.066170874949766], [75.38014383979761, 29.073972210820944], [75.44553381530237, 29.10498535745266], [75.4459709897345, 29.104631314473796]]]}}, {"type": "Feature", "properties": {"panchayat_id": "MP0111", "block_id": "MB01"}, "geometry": {"type": "Polygon", "coordinates": [[[75.4459709897345, 29.104631314473796], [75.45524654542629, 29.10563176683147], [75.49611331825358, 29.09445201212995], [75.49628269643765, 29.094197025124313], [75.47439672518743, 29.056345381798394], [75.4507981223935, 29.062995760936715], [75.4459709897345, 29.104631314473796]]]}}, {"type": "Feature", "properties": {"panchayat_id": "MP0112", "block_id": "MB01"}, "geometry": {"type": "Polygon", "coordinates": [[[75.49628269643765, 29.094197025124313], [75.52684105539528, 29.083375274968496], [75.52715524154391, 29.067447364087833], [75.47954663449873, 29.05014606811046], [75.47439672518743, 29.056345381798394], [75.49628269643765, 29.094197025124313]]]}}, {"type": "Feature", "properties": {"panchayat_id": "MP0212", "block_id": "MB02"}, "geometry": {"type": "Polygon", "coordinates": [[[75.5280030945596, 29.084448685523792], [75.57023801137777, 29.087180178410406], [75.57210540353077, 29.061634359380726], [75.53335337774102, 29.05264687376264], [75.52715524154391, 29.067447364087833], [75.52684105539528, 29.083375274968496], [75.5280030945596, 29.084448685523792]]]}}, {"type": "Feature", "properties": {"panchayat_id": "MP0213", "block_id": "MB02"}, "geometry": {"type": "Polygon", "coordinates": [[[75.57023801137777, 29.087180178410406], [75.58131796421195, 29.099766768855897], [75.61816883939058, 29.085237607381774], [75.61948777064336, 29.083882206537453], [75.61697596766005, 29.062194289339796], [75.57705023595534, 29.055998132204234], [75.57210540353077, 29.061634359380726], [75.57023801137777, 29.087180178410406]]]}}, {"type": "Feature", "properties": {"panchayat_id": "MP0214", "block_id": "MB02"}, "geometry": {"type": "Polygon", "coordinates": [[[75.61948777064336, 29.083882206537453], [75.66811988458336, 29.098297011959893], [75.66845750922704, 29.09779178526962], [75.66677873681625, 29.05196130109897], [75.62582229607064, 29.038546186891352], [75.61697596766005, 29.062194289339796], [75.61948777064336, 29.083882206537453]]]}}, {"type": "Feature", "properties": {"panchayat_id": "MP0215", "block_id": "MB02"}, "geometry": {"type": "Polygon", "coordinates": [[[75.66845750922704, 29.09779178526962], [75.70387861276068, 29.080810990310045], [75.70889293270398, 29.05763142089677], [75.67828416810397, 29.042179958063837], [75.66677873681625, 29.05196130109897], [75.66845750922704, 29.09779178526962]]]}}, {"type": "Feature", "properties": {"panchayat_id": "MP0311", "block_id": "MB03"}, "geometry": {"type": "Polygon", "coordinates": [[[75.70889293270398, 29.05763142089677], [75.70387861276068, 29.080810990310045], [75.7209173068843, 29.090855108877676], [75.7498128287101, 29.080744714507627], [75.74599049648313, 29.0533385883833], [75.72579781664639, 29.045315589229947], [75.70889293270398, 29.05763142089677]]]}}, {"type": "Feature", "properties": {"panchayat_id": "MP0312", "block_id": "MB03"}, "geometry": {"type": "Polygon", "coordinates": [[[75.7498128287101, 29.080744714507627], [75.7662199970754, 29.09560570919697], [75.79068110290198, 29.084266426785742], [75.8000684612808, 29.071598773018327], [75.80246372988279, 29.058298487085445], [75.80107272869466, 29.05470762437798], [75.76119684149666, 29.043482132495868], [75.74599049648313, 29.0533385883833], [75.7498128287101, 29.080744714507627]]]}}, {"type": "Feature", "properties": {"panchayat_id": "MP0313", "block_id": "MB03"}, "geometry": {"type": "Polygon", "coordinates": [[[75.8000684612808, 29.071598773018327], [75.86536409635217, 29.11877504836225], [75.87204977643331, 29.120888793965158], [75.87204977643331, 29.0608057875704], [75.80246372988279, 29.058298487085445], [75.8000684612808, 29.071598773018327]]]}}, {"type": "Feature", "properties": {"panchayat_id": "MP0113", "block_id": "MB01"}, "geometry": {"type": "Polygon", "coordinates": [[[75.4424602986543, 29.111904003704947], [75.44553381530237, 29.10498535745266], [75.38014383979761, 29.073972210820944], [75.38014383979761, 29.133160559431015], [75.4424602986543, 29.111904003704947]]]}}, {"type": "Feature", "properties": {"panchayat_id": "MP0401", "block_id": "MB04"}, "geometry": {"type": "Polygon", "coordinates": [[[75.45524654542629, 29.10563176683147], [75.49573490620794, 29.143118389012308], [75.50017035775491, 29.13717457660851], [75.49611331825358, 29.09445201212995], [75.45524654542629, 29.10563176683147]]]}}, {"type": "Feature", "properties": {"panchayat_id": "MP0402", "block_id": "MB04"}, "geometry": {"type": "Polygon", "coordinates": [[[75.49628269643765, 29.094197025124313], [75.49611331825358, 29.09445201212995], [75.50017035775491, 29.13717457660851], [75.53839836671321, 29.125602001395546], [75.5280030945596, 29.084448685523792], [75.52684105539528, 29.083375274968496], [75.49628269643765, 29.094197025124313]]]}}, {"type": "Feature", "properties": {"panchayat_id": "MP0216", "block_id": "MB02"}, "geometry": {"type": "Polygon", "coordinates": [[[75.53839836671321, 29.125602001395546], [75.54116054353145, 29.1271650483043], [75.57606400381714, 29.12149946945362], [75.58131796421195, 29.099766768855897], [75.57023801137777, 29.087180178410406], [75.5280030945596, 29.084448685523792], [75.53839836671321, 29.125602001395546]]]}}, {"type": "Feature", "properties": {"panchayat_id": "MP0501", "block_id": "MB05"}, "geometry": {"type": "Polygon", "coordinates": [[[75.58113749385683, 29.128987652845197], [75.61936639380944, 29.133422354142684], [75.61816883939058, 29.085237607381774], [75.58131796421195, 29.099766768855897], [75.57606400381714, 29.12149946945362], [75.58113749385683, 29.128987652845197]]]}}, {"type": "Feature", "properties": {"panchayat_id": "MP0502", "block_id": "MB05"}, "geometry": {"type": "Polygon", "coordinates": [[[75.61816883939058, 29.085237607381774], [75.61936639380944, 29.133422354142684], [75.62153641506904, 29.135475314974833], [75.66054582881206, 29.126756118241936], [75.66949275424422, 29.10829810539806], [75.66811988458336, 29.098297011959893], [75.61948777064336, 29.083882206537453], [75.61816883939058, 29.085237607381774]]]}}, {"type": "Feature", "properties": {"panchayat_id": "MP0314", "block_id": "MB03"}, "geometry": {"type": "Polygon", "coordinates": [[[75.66811988458336, 29.098297011959893], [75.66949275424422, 29.10829810539806], [75.71325481949123, 29.131816584233242], [75.723573180132, 29.123652463275974], [75.7209173068843, 29.090855108877676], [75.70387861276068, 29.080810990310045], [75.66845750922704, 29.09779178526962], [75.66811988458336, 29.098297011959893]]]}}, {"type": "Feature", "properties": {"panchayat_id": "MP0315", "block_id": "MB03"}, "geometry": {"type": "Polygon", "coordinates": [[[75.723573180132, 29.123652463275974], [75.75535185979602, 29.122735140281865], [75.76339344959456, 29.111546719912273], [75.7662199970754, 29.09560570919697], [75.7498128287101, 29.080744714507627], [75.7209173068843, 29.090855108877676], [75.723573180132, 29.123652463275974]]]}}, {"type": "Feature", "properties": {"panchayat_id": "MP0601", "block_id": "MB06"}, "geometry": {"type": "Polygon", "coordinates": [[[75.76339344959456, 29.111546719912273], [75.79639930745986, 29.128016961188703], [75.80884171711037, 29.115610091647394], [75.79068110290198, 29.084266426785742], [75.7662199970754, 29.09560570919697], [75.76339344959456, 29.111546719912273]]]}}, {"type": "Feature", "properties": {"panchayat_id": "MP0316", "block_id": "MB03"}, "geometry": {"type": "Polygon", "coordinates": [[[75.80884171711037, 29.115610091647394], [75.86536409635217, 29.11877504836225], [75.8000684612808, 29.071598773018327], [75.79068110290198, 29.084266426785742], [75.80884171711037, 29.115610091647394]]]}}, {"type": "Feature", "properties": {"panchayat_id": "MP0403", "block_id": "MB04"}, "geometry": {"type": "Polygon", "coordinates": [[[75.39276225057195, 29.166366489045927], [75.44685199023179, 29.15391596827752], [75.4424602986543, 29.111904003704947], [75.38014383979761, 29.133160559431015], [75.38014383979761, 29.164225883984876], [75.39276225057195, 29.166366489045927]]]}}, {"type": "Feature", "properties": {"panchayat_id": "MP0404", "block_id": "MB04"}, "geometry": {"type": "Polygon", "coordinates": [[[75.44553381530237, 29.10498535745266], [75.4424602986543, 29.111904003704947], [75.44685199023179, 29.15391596827752], [75.45430135404276, 29.158925680428883], [75.49382904602102, 29.14803647837625], [75.4942371698599, 29.14775168864673], [75.49573490620794, 29.143118389012308], [75.45524654542629, 29.10563176683147], [75.4459709897345, 29.104631314473796], [75.44553381530237, 29.10498535745266]]]}}, {"type": "Feature", "properties": {"panchayat_id": "MP0405", "block_id": "MB04"}, "geometry": {"type": "Polygon", "coordinates": [[[75.4942371698599, 29.14775168864673], [75.5304407299761, 29.17851289358812], [75.54454547964582, 29.16504342754923], [75.54116054353145, 29.1271650483043], [75.53839836671321, 29.125602001395546], [75.50017035775491, 29.13717457660851], [75.49573490620794, 29.143118389012308], [75.4942371698599, 29.14775168864673]]]}}, {"type": "Feature", "properties": {"panchayat_id": "MP0503", "block_id": "MB05"}, "geometry": {"type": "Polygon", "coordinates": [[[75.54116054353145, 29.1271650483043], [75.54454547964582, 29.16504342754923], [75.57294110011725, 29.16546594314084], [75.58043447180088, 29.15881483291631], [75.58113749385683, 29.128987652845197], [75.57606400381714, 29.12149946945362], [75.54116054353145, 29.1271650483043]]]}}, {"type": "Feature", "properties": {"panchayat_id": "MP0504", "block_id": "MB05"}, "geometry": {"type": "Polygon", "coordinates": [[[75.61976060013357, 29.17240035210124], [75.62153641506904, 29.135475314974833], [75.61936639380944, 29.133422354142684], [75.58113749385683, 29.128987652845197], [75.58043447180088, 29.15881483291631], [75.61976060013357, 29.17240035210124]]]}}, {"type": "Feature", "properties": {"panchayat_id": "MP0505", "block_id": "MB05"}, "geometry": {"type": "Polygon", "coordinates": [[[75.62141500201244, 29.174993088920292], [75.66543173990992, 29.155903116407348], [75.66054582881206, 29.126756118241936], [75.62153641506904, 29.135475314974833], [75.61976060013357, 29.17240035210124], [75.62137162393344, 29.17496328701994], [75.62141500201244, 29.174993088920292]]]}}, {"type": "Feature", "properties": {"panchayat_id": "MP0506", "block_id": "MB05"}, "geometry": {"type": "Polygon", "coordinates": [[[75.66934897761423, 29.159500167277024], [75.71169835534683, 29.161292814779124], [75.71325481949123, 29.131816584233242], [75.66949275424422, 29.10829810539806], [75.66054582881206, 29.126756118241936], [75.66543173990992, 29.155903116407348], [75.66934897761423, 29.159500167277024]]]}}, {"type": "Feature", "properties": {"panchayat_id": "MP0602", "block_id": "MB06"}, "geometry": {"type": "Polygon", "coordinates": [[[75.71169835534683, 29.161292814779124], [75.71262202646697, 29.1626887544737], [75.76332369789023, 29.15491681424871], [75.75535185979602, 29.122735140281865], [75.723573180132, 29.123652463275974], [75.71325481949123, 29.131816584233242], [75.71169835534683, 29.161292814779124]]]}}, {"type": "Feature", "properties": {"panchayat_id": "MP0603", "block_id": "MB06"}, "geometry": {"type": "Polygon", "coordinates": [[[75.76415116341543, 29.155723756221718], [75.79675986642583, 29.146570911455505], [75.79639930745986, 29.128016961188703], [75.76339344959456, 29.111546719912273], [75.75535185979602, 29.122735140281865], [75.76332369789023, 29.15491681424871], [75.76415116341543, 29.155723756221718]]]}}, {"type": "Feature", "properties": {"panchayat_id": "MP0604", "block_id": "MB06"}, "geometry": {"type": "Polygon", "coordinates": [[[75.81529534204144, 29.159386045024036], [75.87204977643331, 29.12825030771037], [75.87204977643331, 29.120888793965158], [75.86536409635217, 29.11877504836225], [75.80884171711037, 29.115610091647394], [75.79639930745986, 29.128016961188703], [75.79675986642583, 29.146570911455505], [75.81529534204144, 29.159386045024036]]]}}, {"type": "Feature", "properties": {"panchayat_id": "MP0406", "block_id": "MB04"}, "geometry": {"type": "Polygon", "coordinates": [[[75.4448449775001, 29.215729441391566], [75.45788771039979, 29.19394400733629], [75.45430135404276, 29.158925680428883], [75.44685199023179, 29.15391596827752], [75.39276225057195, 29.166366489045927], [75.4448449775001, 29.215729441391566]]]}}, {"type": "Feature", "properties": {"panchayat_id": "MP0407", "block_id": "MB04"}, "geometry": {"type": "Polygon", "coordinates": [[[75.45430135404276, 29.158925680428883], [75.45788771039979, 29.19394400733629], [75.4888950124036, 29.19336465800094], [75.49382904602102, 29.14803647837625], [75.45430135404276, 29.158925680428883]]]}}, {"type": "Feature", "properties": {"panchayat_id": "MP0408", "block_id": "MB04"}, "geometry": {"type": "Polygon", "coordinates": [[[75.4888950124036, 29.19336465800094], [75.49946301199006, 29.200338667092165], [75.51782414224671, 29.199101544120204], [75.53034466095868, 29.17965206072202], [75.5304407299761, 29.17851289358812], [75.4942371698599, 29.14775168864673], [75.49382904602102, 29.14803647837625], [75.4888950124036, 29.19336465800094]]]}}, {"type": "Feature", "properties": {"panchayat_id": "MP0507", "block_id": "MB05"}, "geometry": {"type": "Polygon", "coordinates": [[[75.53034466095868, 29.17965206072202], [75.57169923911218, 29.210257738650036], [75.57516778376889, 29.20950364574012], [75.57699944063584, 29.204840527204244], [75.57294110011725, 29.16546594314084], [75.54454547964582, 29.16504342754923], [75.5304407299761, 29.17851289358812], [75.53034466095868, 29.17965206072202]]]}}, {"type": "Feature", "properties": {"panchayat_id": "MP0508", "block_id": "MB05"}, "geometry": {"type": "Polygon", "coordinates": [[[75.57294110011725, 29.16546594314084], [75.57699944063584, 29.204840527204244], [75.62137162393344, 29.17496328701994], [75.61976060013357, 29.17240035210124], [75.58043447180088, 29.15881483291631], [75.57294110011725, 29.16546594314084]]]}}, {"type": "Feature", "properties": {"panchayat_id": "MP0509", "block_id": "MB05"}, "geometry": {"type": "Polygon", "coordinates": [[[75.62141500201244, 29.174993088920292], [75.626440046461, 29.185695054052633], [75.66917806672406, 29.200013129010568], [75.66934897761423, 29.159500167277024], [75.66543173990992, 29.155903116407348], [75.62141500201244, 29.174993088920292]]]}}, {"type": "Feature", "properties": {"panchayat_id": "MP0510", "block_id": "MB05"}, "geometry": {"type": "Polygon", "coordinates": [[[75.67316781581134, 29.205981452694843], [75.71461701364764, 29.180844218181537], [75.71262202646697, 29.1626887544737], [75.71169835534683, 29.161292814779124], [75.66934897761423, 29.159500167277024], [75.66917806672406, 29.200013129010568], [75.67316781581134, 29.205981452694843]]]}}, {"type": "Feature", "properties": {"panchayat_id": "MP0605", "block_id": "MB06"}, "geometry": {"type": "Polygon", "coordinates": [[[75.71461701364764, 29.180844218181537], [75.728223410807, 29.196364395667796], [75.76004084824157, 29.19295651376069], [75.76844656374023, 29.185975355204967], [75.76415116341543, 29.155723756221718], [75.76332369789023, 29.15491681424871], [75.71262202646697, 29.1626887544737], [75.71461701364764, 29.180844218181537]]]}}, {"type": "Feature", "properties": {"panchayat_id": "MP0606", "block_id": "MB06"}, "geometry": {"type": "Polygon", "coordinates": [[[75.76844656374023, 29.185975355204967], [75.80733479908157, 29.196458571444822], [75.81529534204144, 29.159386045024036], [75.79675986642583, 29.146570911455505], [75.76415116341543, 29.155723756221718], [75.76844656374023, 29.185975355204967]]]}}, {"type": "Feature", "properties": {"panchayat_id": "MP0607", "block_id": "MB06"}, "geometry": {"type": "Polygon", "coordinates": [[[75.81529534204144, 29.159386045024036], [75.80733479908157, 29.196458571444822], [75.81055207189715, 29.201479559482117], [75.87204977643331, 29.19327542096707], [75.87204977643331, 29.12825030771037], [75.81529534204144, 29.159386045024036]]]}}, {"type": "Feature", "properties": {"panchayat_id": "MP0409", "block_id": "MB04"}, "geometry": {"type": "Polygon", "coordinates": [[[75.43913735837481, 29.22524285677334], [75.44475531060704, 29.217059086316315], [75.4448449775001, 29.215729441391566], [75.39276225057195, 29.166366489045927], [75.38014383979761, 29.164225883984876], [75.38014383979761, 29.23263983650404], [75.43913735837481, 29.22524285677334]]]}}, {"type": "Feature", "properties": {"panchayat_id": "MP0410", "block_id": "MB04"}, "geometry": {"type": "Polygon", "coordinates": [[[75.49946301199006, 29.200338667092165], [75.4888950124036, 29.19336465800094], [75.45788771039979, 29.19394400733629], [75.4448449775001, 29.215729441391566], [75.44475531060704, 29.217059086316315], [75.48491319626396, 29.23157218932261], [75.49946301199006, 29.200338667092165]]]}}, {"type": "Feature", "properties": {"panchayat_id": "MP0411", "block_id": "MB04"}, "geometry": {"type": "Polygon", "coordinates": [[[75.48491319626396, 29.23157218932261], [75.48955739728694, 29.238529855810057], [75.53279478336249, 29.23749937851909], [75.51782414224671, 29.199101544120204], [75.49946301199006, 29.200338667092165], [75.48491319626396, 29.23157218932261]]]}}, {"type": "Feature", "properties": {"panchayat_id": "MP0412", "block_id": "MB04"}, "geometry": {"type": "Polygon", "coordinates": [[[75.51782414224671, 29.199101544120204], [75.53279478336249, 29.23749937851909], [75.53635011825315, 29.240253051502993], [75.57169923911218, 29.210257738650036], [75.53034466095868, 29.17965206072202], [75.51782414224671, 29.199101544120204]]]}}, {"type": "Feature", "properties": {"panchayat_id": "MP0511", "block_id": "MB05"}, "geometry": {"type": "Polygon", "coordinates": [[[75.57516778376889, 29.20950364574012], [75.57707818313014, 29.21117716577435], [75.61304997366751, 29.224133984037273], [75.62210213969293, 29.21681264702306], [75.626440046461, 29.185695054052633], [75.62141500201244, 29.174993088920292], [75.62137162393344, 29.17496328701994], [75.57699944063584, 29.204840527204244], [75.57516778376889, 29.20950364574012]]]}}, {"type": "Feature", "properties": {"panchayat_id": "MP0512", "block_id": "MB05"}, "geometry": {"type": "Polygon", "coordinates": [[[75.6730784182502, 29.223749191063778], [75.67316781581134, 29.205981452694843], [75.66917806672406, 29.200013129010568], [75.626440046461, 29.185695054052633], [75.62210213969293, 29.21681264702306], [75.66551013525847, 29.23151866199876], [75.6730784182502, 29.223749191063778]]]}}, {"type": "Feature", "properties": {"panchayat_id": "MP0608", "block_id": "MB06"}, "geometry": {"type": "Polygon", "coordinates": [[[75.67316781581134, 29.205981452694843], [75.6730784182502, 29.223749191063778], [75.72003570626036, 29.236578871411268], [75.728223410807, 29.196364395667796], [75.71461701364764, 29.180844218181537], [75.67316781581134, 29.205981452694843]]]}}, {"type": "Feature", "properties": {"panchayat_id": "MP0609", "block_id": "MB06"}, "geometry": {"type": "Polygon", "coordinates": [[[75.72003570626036, 29.236578871411268], [75.72045478009042, 29.237230837279], [75.76317718384281, 29.228998479370325], [75.76004084824157, 29.19295651376069], [75.728223410807, 29.196364395667796], [75.72003570626036, 29.236578871411268]]]}}, {"type": "Feature", "properties": {"panchayat_id": "MP0610", "block_id": "MB06"}, "geometry": {"type": "Polygon", "coordinates": [[[75.76004084824157, 29.19295651376069], [75.76317718384281, 29.228998479370325], [75.772696525593, 29.235913182932073], [75.80988214829073, 29.209317099271683], [75.81055207189715, 29.201479559482117], [75.80733479908157, 29.196458571444822], [75.76844656374023, 29.185975355204967], [75.76004084824157, 29.19295651376069]]]}}, {"type": "Feature", "properties": {"panchayat_id": "MP0611", "block_id": "MB06"}, "geometry": {"type": "Polygon", "coordinates": [[[75.81055207189715, 29.201479559482117], [75.80988214829073, 29.209317099271683], [75.81807883208376, 29.22879774454186], [75.87204977643331, 29.24117079503437], [75.87204977643331, 29.19327542096707], [75.81055207189715, 29.201479559482117]]]}}, {"type": "Feature", "properties": {"panchayat_id": "MP0413", "block_id": "MB04"}, "geometry": {"type": "Polygon", "coordinates": [[[75.43913735837481, 29.22524285677334], [75.38014383979761, 29.23263983650404], [75.38014383979761, 29.275193499424315], [75.44520047654639, 29.275193499424315], [75.43913735837481, 29.22524285677334]]]}}, {"type": "Feature", "properties": {"panchayat_id": "MP0414", "block_id": "MB04"}, "geometry": {"type": "Polygon", "coordinates": [[[75.43913735837481, 29.22524285677334], [75.44520047654639, 29.275193499424315], [75.47961780722014, 29.275193499424315], [75.48955739728694, 29.238529855810057], [75.48491319626396, 29.23157218932261], [75.44475531060704, 29.217059086316315], [75.43913735837481, 29.22524285677334]]]}}, {"type": "Feature", "properties": {"panchayat_id": "MP0415", "block_id": "MB04"}, "geometry": {"type": "Polygon", "coordinates": [[[75.53635011825315, 29.240253051502993], [75.53279478336249, 29.23749937851909], [75.48955739728694, 29.238529855810057], [75.47961780722014, 29.275193499424315], [75.54468915057852, 29.275193499424315], [75.53635011825315, 29.240253051502993]]]}}, {"type": "Feature", "properties": {"panchayat_id": "MP0513", "block_id": "MB05"}, "geometry": {"type": "Polygon", "coordinates": [[[75.54468915057852, 29.275193499424315], [75.58800867635476, 29.275193499424315], [75.57707818313014, 29.21117716577435], [75.57516778376889, 29.20950364574012], [75.57169923911218, 29.210257738650036], [75.53635011825315, 29.240253051502993], [75.54468915057852, 29.275193499424315]]]}}, {"type": "Feature", "properties": {"panchayat_id": "MP0514", "block_id": "MB05"}, "geometry": {"type": "Polygon", "coordinates": [[[75.58800867635476, 29.275193499424315], [75.61100691778213, 29.275193499424315], [75.61304997366751, 29.224133984037273], [75.57707818313014, 29.21117716577435], [75.58800867635476, 29.275193499424315]]]}}, {"type": "Feature", "properties": {"panchayat_id": "MP0515", "block_id": "MB05"}, "geometry": {"type": "Polygon", "coordinates": [[[75.66551013525847, 29.23151866199876], [75.62210213969293, 29.21681264702306], [75.61304997366751, 29.224133984037273], [75.61100691778213, 29.275193499424315], [75.65370032239925, 29.275193499424315], [75.66551013525847, 29.23151866199876]]]}}, {"type": "Feature", "properties": {"panchayat_id": "MP0516", "block_id": "MB05"}, "geometry": {"type": "Polygon", "coordinates": [[[75.72045478009042, 29.237230837279], [75.72003570626036, 29.236578871411268], [75.6730784182502, 29.223749191063778], [75.66551013525847, 29.23151866199876], [75.65370032239925, 29.275193499424315], [75.72432774607226, 29.275193499424315], [75.72045478009042, 29.237230837279]]]}}, {"type": "Feature", "properties": {"panchayat_id": "MP0612", "block_id": "MB06"}, "geometry": {"type": "Polygon", "coordinates": [[[75.772696525593, 29.235913182932073], [75.76317718384281, 29.228998479370325], [75.72045478009042, 29.237230837279], [75.72432774607226, 29.275193499424315], [75.77961277709714, 29.275193499424315], [75.772696525593, 29.235913182932073]]]}}, {"type": "Feature", "properties": {"panchayat_id": "MP0613", "block_id": "MB06"}, "geometry": {"type": "Polygon", "coordinates": [[[75.77961277709714, 29.275193499424315], [75.80854099680957, 29.275193499424315], [75.81807883208376, 29.22879774454186], [75.80988214829073, 29.209317099271683], [75.772696525593, 29.235913182932073], [75.77961277709714, 29.275193499424315]]]}}, {"type": "Feature", "properties": {"panchayat_id": "MP0614", "block_id": "MB06"}, "geometry": {"type": "Polygon", "coordinates": [[[75.81807883208376, 29.22879774454186], [75.80854099680957, 29.275193499424315], [75.87204977643331, 29.275193499424315], [75.87204977643331, 29.24117079503437], [75.81807883208376, 29.22879774454186]]]}}]}